[{"OBJECT_NAME":"YAOGAN-40 01C","OBJECT_ID":"2023-139D","EPOCH":"2026-03-09T23:20:37.882752","MEAN_MOTION":14.12430218,"ECCENTRICITY":0.00025102,"INCLINATION":85.9906,"RA_OF_ASC_NODE":303.7658,"ARG_OF_PERICENTER":75.0001,"MEAN_ANOMALY":285.146,"EPHEMERIS_TYPE":0,"CLASSIFICATION_TYPE":"U","NORAD_CAT_ID":57833,"ELEMENT_SET_NO":999,"REV_AT_EPOCH":12880,"BSTAR":9.1342064e-5,"MEAN_MOTION_DOT":1.87e-6,"MEAN_MOTION_DDOT":0},{"OBJECT_NAME":"FENGYUN 1C DEB","OBJECT_ID":"1999-025DJJ","EPOCH":"2026-03-09T01:41:44.865888","MEAN_MOTION":14.22933389,"ECCENTRICITY":0.00529585,"INCLINATION":99.1062,"RA_OF_ASC_NODE":113.1469,"ARG_OF_PERICENTER":22.6479,"MEAN_ANOMALY":337.7018,"EPHEMERIS_TYPE":0,"CLASSIFICATION_TYPE":"U","NORAD_CAT_ID":33745,"ELEMENT_SET_NO":999,"REV_AT_EPOCH":67229,"BSTAR":0.0015498959,"MEAN_MOTION_DOT":3.491e-5,"MEAN_MOTION_DDOT":0}]
